GUOWANG OBJECT D        
1 69575U 26137D   26185.69024756 -.00000179  00000+0 -26923-4 0  9996
2 69575  49.9953 185.6466 0011148 282.9923  76.9731 13.89828409  2466
GUOWANG OBJECT E        
1 69576U 26137E   26185.25783234 -.00000204  00000+0 -46855-4 0  9997
2 69576  50.0031 187.3788 0011247 284.2931  75.6718 13.89825933  2401
GUOWANG OBJECT F        
1 69577U 26137F   26186.47932859 -.00000211  00000+0 -52671-4 0  9993
2 69577  50.0022 182.5084 0010866 288.0196  71.9518 13.89810070  2570
GUOWANG OBJECT H        
1 69579U 26137H   26176.48489301  .00000037  00000+0  14270-3 0  9990
2 69579  49.9967 222.2731 0010122 259.8752 100.1006 13.92076941  1185
GUOWANG OBJECT J        
1 69580U 26137J   26178.27848690  .00000022  00000+0  13174-3 0  9997
2 69580  49.9961 215.0979 0011832 257.3150 102.6427 13.91997107  1436
CENTISPACE-1 GROUP 05 O*
1 69582U 26138A   26186.57290412 -.00000332  00000+0 -90791-4 0  9992
2 69582  55.1389 213.2787 0010668 322.3884  37.6343 14.15471865  2622
CENTISPACE-1 GROUP 05 O*
1 69583U 26138B   26186.57053535 -.00000381  00000+0 -11535-3 0  9998
2 69583  55.1387 213.2646 0009639 322.5344  37.4958 14.15652755  2623
CENTISPACE-1 GROUP 05 O*
1 69584U 26138C   26186.56942652 -.00000388  00000+0 -11905-3 0  9993
2 69584  55.1393 213.2672 0009560 324.2126  35.8207 14.15736831  2627
CENTISPACE-1 GROUP 05 O*
1 69585U 26138D   26186.56720203 -.00000449  00000+0 -14946-3 0  9996
2 69585  55.1394 213.2467 0009112 323.1906  36.8442 14.15923582  2621
CENTISPACE-1 GROUP 05 O*
1 69586U 26138E   26186.56634403 -.00000424  00000+0 -13626-3 0  9990
2 69586  55.1387 213.2493 0008861 323.5922  36.4449 14.15990347  2621
CENTISPACE-1 GROUP 05 O*
1 69587U 26138F   26186.56716616 -.00000423  00000+0 -13600-3 0  9999
2 69587  55.1390 213.2551 0008747 328.0276  32.0166 14.15913480  2627
CENTISPACE-1 GROUP 05 O*
1 69588U 26138G   26186.56500846 -.00000453  00000+0 -15103-3 0  9999
2 69588  55.1390 213.2409 0008013 327.6079  32.4403 14.16077925  2626
SPACEMOBILE-008         
1 69589U 26139A   26186.37511343  .00000648  00000+0  53437-4 0  9991
2 69589  52.9937 179.9917 0004555  32.5160 327.6111 15.12792661  2736
SPACEMOBILE-009         
1 69590U 26139B   26186.37638295  .00000666  00000+0  54594-4 0  9994
2 69590  52.9928 179.9954 0004778  27.5177 332.6066 15.12686017  2730
SPACEMOBILE-010         
1 69591U 26139C   26186.37840000  .00000696  00000+0  56567-4 0  9999
2 69591  52.9932 180.0103 0004652  18.4515 341.6644 15.12517151  2746
KUIPER-00423            
1 69592U 26140A   26185.72459765  .00061233  00000+0  15846-2 0  9991
2 69592  51.8809 313.7629 0013665 229.9746 130.0043 15.38400119  3933
KUIPER-00428            
1 69593U 26140B   26186.33719416  .00042939  00000+0  11792-2 0  9990
2 69593  51.8817 311.1132 0007905 359.5611   0.5367 15.36785604  4029
KUIPER-00481            
1 69594U 26140C   26186.58336806  .00000964  00000+0  36081-4 0  9998
2 69594  51.8787 309.6851 0011023 241.5678 156.6957 15.37790187  3508
KUIPER-00490            
1 69595U 26140D   26186.39102706  .00042730  00000+0  11367-2 0  9993
2 69595  51.8783 310.7183 0006163 302.5508  57.4883 15.37783143  4034
KUIPER-00493            
1 69596U 26140E   26186.34070979  .00037651  00000+0  10451-2 0  9994
2 69596  51.8805 311.1346 0007639   8.5980 351.5136 15.36515270  4023
KUIPER-00496            
1 69597U 26140F   26186.35070441  .00036900  00000+0  10902-2 0  9997
2 69597  51.8796 311.1948 0010340  18.8961 341.2407 15.34547530  4026
KUIPER-00513            
1 69598U 26140G   26185.73922072  .00058142  00000+0  15312-2 0  9997
2 69598  51.8815 313.8573 0006860 298.3893  61.6402 15.37953756  3934
KUIPER-00516            
1 69599U 26140H   26186.39374292  .00048323  00000+0  12975-2 0  9998
2 69599  51.8803 310.7365 0006326 318.2058  41.8445 15.37440652  4034
KUIPER-00517            
1 69600U 26140J   26186.37806358  .00044916  00000+0  11571-2 0  9997
2 69600  51.8761 310.6337 0010450 253.1693 106.8148 15.38715602  4036
KUIPER-00520            
1 69601U 26140K   26186.39495341  .00036076  00000+0  97154-3 0  9996
2 69601  51.8836 310.7534 0006233 319.3363  40.7157 15.37483915  4037
KUIPER-00522            
1 69602U 26140L   26185.78911102  .00032396  00000+0  84547-3 0  9990
2 69602  51.8793 313.4419 0013417 226.4419 133.5455 15.38436601  3946
KUIPER-00528            
1 69603U 26140M   26186.39668253  .00049792  00000+0  13407-2 0  9999
2 69603  51.8806 310.7554 0005111 325.2521  34.8131 15.37345823  4035
KUIPER-00532            
1 69604U 26140N   26186.58336806  .00006586  00000+0  19201-3 0  9990
2 69604  51.8801 309.9252 0005678   0.8974 278.6446 15.36598595  3998
