OBJECT_NAME,OBJECT_ID,EPOCH,MEAN_MOTION,ECCENTRICITY,INCLINATION,RA_OF_ASC_NODE,ARG_OF_PERICENTER,MEAN_ANOMALY,EPHEMERIS_TYPE,CLASSIFICATION_TYPE,NORAD_CAT_ID,ELEMENT_SET_NO,REV_AT_EPOCH,BSTAR,MEAN_MOTION_DOT,MEAN_MOTION_DDOT
GUOWANG OBJECT D,2026-137D,2026-07-04T16:33:57.389184,13.89828409,.00111481,49.9953,185.6466,282.9923,76.9731,0,U,69575,999,246,-.26923089E-4,-.179E-5,0
GUOWANG OBJECT E,2026-137E,2026-07-04T06:11:16.714176,13.89825933,.0011247,50.0031,187.3788,284.2931,75.6718,0,U,69576,999,240,-.46855E-4,-.204E-5,0
GUOWANG OBJECT F,2026-137F,2026-07-05T11:30:13.990176,13.89810070,.0010866,50.0022,182.5084,288.0196,71.9518,0,U,69577,999,257,-.52671E-4,-.211E-5,0
GUOWANG OBJECT H,2026-137H,2026-06-25T11:38:14.756064,13.92076941,.0010122,49.9967,222.2731,259.8752,100.1006,0,U,69579,999,118,.1427E-3,.37E-6,0
GUOWANG OBJECT J,2026-137J,2026-06-27T06:41:01.268160,13.91997107,.0011832,49.9961,215.0979,257.3150,102.6427,0,U,69580,999,143,.13174E-3,.22E-6,0
CENTISPACE-1 GROUP 05 OBJECT A,2026-138A,2026-07-05T13:44:58.915968,14.15471865,.00106689,55.1389,213.2787,322.3884,37.6343,0,U,69582,999,262,-.90791316E-4,-.332E-5,0
CENTISPACE-1 GROUP 05 OBJECT B,2026-138B,2026-07-05T13:41:34.254240,14.15652755,.00096397,55.1387,213.2646,322.5344,37.4958,0,U,69583,999,262,-.11534928E-3,-.381E-5,0
CENTISPACE-1 GROUP 05 OBJECT C,2026-138C,2026-07-05T13:39:58.451328,14.15736831,.00095602,55.1393,213.2672,324.2126,35.8207,0,U,69584,999,262,-.11905397E-3,-.388E-5,0
CENTISPACE-1 GROUP 05 OBJECT D,2026-138D,2026-07-05T13:36:46.255392,14.15923582,.00091125,55.1394,213.2467,323.1906,36.8442,0,U,69585,999,262,-.14946413E-3,-.449E-5,0
CENTISPACE-1 GROUP 05 OBJECT E,2026-138E,2026-07-05T13:35:32.124192,14.15990347,.00088616,55.1387,213.2493,323.5922,36.4449,0,U,69586,999,262,-.13625697E-3,-.424E-5,0
CENTISPACE-1 GROUP 05 OBJECT F,2026-138F,2026-07-05T13:36:43.156224,14.15913480,.00087477,55.1390,213.2551,328.0276,32.0166,0,U,69587,999,262,-.13599509E-3,-.423E-5,0
CENTISPACE-1 GROUP 05 OBJECT G,2026-138G,2026-07-05T13:33:36.730944,14.16077925,.00080139,55.1390,213.2409,327.6079,32.4403,0,U,69588,999,262,-.15102546E-3,-.453E-5,0
SPACEMOBILE-008,2026-139A,2026-07-05T09:00:09.800352,15.12792661,.0004555,52.9937,179.9917,32.5160,327.6111,0,U,69589,999,273,.53437E-4,.648E-5,0
SPACEMOBILE-009,2026-139B,2026-07-05T09:01:59.486016,15.12686017,.0004779,52.9928,179.9954,27.5177,332.6066,0,U,69590,999,273,.54594E-4,.666E-5,0
SPACEMOBILE-010,2026-139C,2026-07-05T09:04:53.760000,15.12517151,.0004653,52.9932,180.0103,18.4515,341.6644,0,U,69591,999,274,.56567E-4,.696E-5,0
KUIPER-00423,2026-140A,2026-07-04T17:23:25.236960,15.38400119,.00136656,51.8809,313.7629,229.9746,130.0043,0,U,69592,999,393,.15845818E-2,.61233E-3,0
KUIPER-00428,2026-140B,2026-07-05T08:05:33.575424,15.36785604,.0007905,51.8817,311.1132,359.5611,0.5367,0,U,69593,999,402,.11792E-2,.42939E-3,0
KUIPER-00481,2026-140C,2026-07-05T14:00:03.000384,15.37790187,.00110233,51.8787,309.6851,241.5678,156.6957,0,U,69594,999,350,.36081417E-4,.964E-5,0
KUIPER-00490,2026-140D,2026-07-05T09:23:04.737120,15.37783143,.0006163,51.8783,310.7183,302.5508,57.4883,0,U,69595,999,403,.11367E-2,.4273E-3,0
KUIPER-00493,2026-140E,2026-07-05T08:10:37.324992,15.36515270,.0007639,51.8805,311.1346,8.5980,351.5136,0,U,69596,999,402,.10451E-2,.37651E-3,0
KUIPER-00496,2026-140F,2026-07-05T08:25:00.861024,15.34547530,.001034,51.8796,311.1948,18.8961,341.2407,0,U,69597,999,402,.10902E-2,.369E-3,0
KUIPER-00513,2026-140G,2026-07-04T17:44:28.670208,15.37953756,.000686,51.8815,313.8573,298.3893,61.6402,0,U,69598,999,393,.15312E-2,.58142E-3,0
KUIPER-00516,2026-140H,2026-07-05T09:26:59.388288,15.37440652,.0006326,51.8803,310.7365,318.2058,41.8445,0,U,69599,999,403,.12975E-2,.48323E-3,0
KUIPER-00517,2026-140J,2026-07-05T09:04:24.693312,15.38715602,.0010451,51.8761,310.6337,253.1693,106.8148,0,U,69600,999,403,.11571E-2,.44916E-3,0
KUIPER-00520,2026-140K,2026-07-05T09:28:43.973760,15.37483914,.0006233,51.8836,310.7534,319.3363,40.7157,0,U,69601,999,403,.97154E-3,.36076E-3,0
KUIPER-00522,2026-140L,2026-07-04T18:56:19.192128,15.38436601,.00134176,51.8793,313.4419,226.4419,133.5455,0,U,69602,999,394,.84546503E-3,.32396E-3,0
KUIPER-00528,2026-140M,2026-07-05T09:31:13.369728,15.37345823,.0005111,51.8806,310.7554,325.2521,34.8131,0,U,69603,999,403,.13407E-2,.49792E-3,0
KUIPER-00532,2026-140N,2026-07-05T14:00:03.000384,15.36598595,.00056784,51.8801,309.9252,0.8974,278.6446,0,U,69604,999,399,.1920092E-3,.6586E-4,0
